OBJECT_NAME,OBJECT_ID,EPOCH,MEAN_MOTION,ECCENTRICITY,INCLINATION,RA_OF_ASC_NODE,ARG_OF_PERICENTER,MEAN_ANOMALY,EPHEMERIS_TYPE,CLASSIFICATION_TYPE,NORAD_CAT_ID,ELEMENT_SET_NO,REV_AT_EPOCH,BSTAR,MEAN_MOTION_DOT,MEAN_MOTION_DDOT
2026-106D,2026-106D,2026-07-15T22:39:48.872160,15.11357585,.00154615,97.5071,278.5069,74.0464,286.2469,0,U,69100,999,932,.62272824E-4,.989E-5,0
2026-106E,2026-106E,2026-07-15T22:23:49.881408,15.11752984,.00180043,97.5073,278.5230,75.6536,284.6691,0,U,69101,999,932,.21061875E-3,.354E-4,0
QIANFAN-145,2026-108A,2026-07-15T15:42:36.982080,13.64019584,.00199573,89.0098,19.2129,17.2679,342.9154,0,U,69104,999,827,-.25896781E+1,-.1915716E-1,0
QIANFAN-146,2026-108B,2026-07-15T17:53:49.705152,13.81340502,.00235307,89.0105,19.1038,34.2924,325.9758,0,U,69105,999,834,-.19520833E+1,-.1942219E-1,0
QIANFAN-147,2026-108C,2026-07-15T19:05:38.910336,13.57327836,.00182484,89.0105,19.1973,20.3367,339.8511,0,U,69106,999,828,-.27758874E+1,-.1849348E-1,0
QIANFAN-148,2026-108D,2026-07-15T18:55:54.442848,13.59173409,.00194264,89.0066,19.1973,24.4022,335.8049,0,U,69107,999,828,-.29498328E+1,-.2033444E-1,0
QIANFAN-149,2026-108E,2026-07-15T18:08:53.673792,13.58876078,.00184228,89.0097,19.2090,18.0402,342.1403,0,U,69108,999,828,-.29243968E+1,-.2007793E-1,0
QIANFAN-150,2026-108F,2026-07-15T18:30:33.971328,13.63371759,.0019898,89.0094,19.1768,18.0300,342.1559,0,U,69109,999,829,-.27434336E+1,-.2023604E-1,0
QIANFAN-151,2026-108G,2026-07-15T17:47:34.703232,13.62254647,.00169985,89.0101,19.1901,22.1647,338.0241,0,U,69110,999,828,-.25589996E+1,-.1844429E-1,0
QIANFAN-152,2026-108H,2026-07-15T18:52:34.340448,13.60659586,.00160094,89.0099,19.1777,14.1363,346.0238,0,U,69111,999,830,-.27322428E+1,-.1914253E-1,0
QIANFAN-153,2026-108J,2026-07-15T22:54:24.241536,13.71252163,.00205265,89.0097,19.1629,26.5815,333.6395,0,U,69112,999,831,.14612458E-4,.26E-6,0
QIANFAN-154,2026-108K,2026-07-15T18:15:13.862304,13.56324679,.00205533,89.0095,19.1942,26.9800,333.2418,0,U,69113,999,829,-.28525752E+1,-.1869556E-1,0
QIANFAN-155,2026-108L,2026-07-15T18:44:14.003232,13.62363225,.00191004,89.0104,19.1799,31.3325,328.8966,0,U,69114,999,829,-.28090346E+1,-.2037499E-1,0
QIANFAN-156,2026-108M,2026-07-15T18:53:34.851552,13.63628400,.00211197,89.0116,19.1671,20.2216,339.9774,0,U,69115,999,831,-.26355276E+1,-.1956683E-1,0
QIANFAN-157,2026-108N,2026-07-15T18:39:50.688864,13.70939135,.00195008,89.0095,19.1214,33.9370,326.3035,0,U,69116,999,833,-.23002667E+1,-.1904828E-1,0
QIANFAN-158,2026-108P,2026-07-15T19:05:37.419072,13.66638331,.00234564,89.0103,19.1430,37.7163,322.5635,0,U,69117,999,832,-.26087657E+1,-.2029356E-1,0
QIANFAN-159,2026-108Q,2026-07-15T22:12:59.349888,13.64261084,.00209519,89.0094,19.1397,23.7664,336.4458,0,U,69118,999,833,.12108915E-4,.22E-6,0
QIANFAN-160,2026-108R,2026-07-15T19:27:23.204736,13.58156666,.00204841,89.0099,19.1647,24.8823,335.3316,0,U,69119,999,831,-.27069995E+1,-.1829275E-1,0
QIANFAN-161,2026-108S,2026-07-15T22:06:52.375392,13.75476813,.00191645,89.0109,19.1102,26.4275,333.7864,0,U,69120,999,835,.11386339E-4,.24E-6,0
QIANFAN-162,2026-108T,2026-07-15T22:02:47.885856,13.68857520,.0019953,89.0103,19.1255,24.7976,335.4140,0,U,69121,999,833,.9440272E-5,.21E-6,0
SMILE,2026-109A,2026-07-13T23:01:31.580256,0.47500629,.83137076,70.0512,206.6048,286.9544,0.1879,0,U,69123,999,6,0,.936E-5,0
STARLINK-37726,2026-110A,2026-07-15T11:55:47.953920,15.33444704,.00020617,97.2840,32.5879,90.8677,269.2802,0,U,69124,999,995,.31433282E-3,.10087E-3,0
STARLINK-37722,2026-110B,2026-07-15T13:14:06.152640,15.33446975,.00014951,97.2854,32.5193,88.3673,271.7741,0,U,69125,999,995,.32334464E-3,.10379E-3,0
STARLINK-37715,2026-110C,2026-07-15T11:51:53.690688,15.33425041,.00015818,97.2847,32.4450,94.8960,265.2463,0,U,69126,999,994,.31983165E-3,.10258E-3,0
STARLINK-37706,2026-110D,2026-07-15T13:21:56.612736,15.33427108,.00010882,97.2867,32.5167,90.0292,270.1075,0,U,69127,999,995,.9261502E-5,.224E-5,0
STARLINK-37723,2026-110E,2026-07-15T14:51:58.209408,15.33433662,.00018358,97.2842,32.5821,92.9983,267.1469,0,U,69128,999,996,.24049939E-3,.7694E-4,0
STARLINK-37720,2026-110F,2026-07-15T13:10:11.241408,15.33448905,.0001849,97.2847,32.5199,106.9216,253.2230,0,U,69129,999,995,.34057648E-3,.10938E-3,0
STARLINK-37533,2026-110G,2026-07-15T13:06:16.063200,15.33451850,.00017484,97.2846,32.5288,93.8325,266.3118,0,U,69130,999,995,.35659052E-3,.11457E-3,0
STARLINK-37530,2026-110H,2026-07-15T13:02:23.316288,15.33453200,.00022154,97.2846,32.5330,109.7133,250.4349,0,U,69131,999,995,.41030091E-3,.13198E-3,0
STARLINK-37660,2026-110J,2026-07-15T14:32:24.547488,15.33463525,.00019305,97.2855,32.6001,92.8449,267.3014,0,U,69132,999,996,.38889272E-3,.12508E-3,0
