2026-106D               
1 69100U 26106D   26196.94431565  .00000989  00000+0  62273-4 0  9991
2 69100  97.5071 278.5069 0015461  74.0464 286.2469 15.11357585  9328
2026-106E               
1 69101U 26106E   26196.93321622  .00003540  00000+0  21062-3 0  9999
2 69101  97.5073 278.5230 0018004  75.6536 284.6691 15.11752984  9325
QIANFAN-145             
1 69104U 26108A   26196.65459470 -.01915716  00000+0 -25897+1 0  9993
2 69104  89.0098  19.2129 0019957  17.2679 342.9154 13.64019584  8279
QIANFAN-146             
1 69105U 26108B   26196.74571418 -.01942219  00000+0 -19521+1 0  9996
2 69105  89.0105  19.1038 0023530  34.2924 325.9758 13.81340502  8346
QIANFAN-147             
1 69106U 26108C   26196.79558924 -.01849348  00000+0 -27759+1 0  9990
2 69106  89.0105  19.1973 0018248  20.3367 339.8511 13.57327836  8284
QIANFAN-148             
1 69107U 26108D   26196.78882457 -.02033444  00000+0 -29498+1 0  9996
2 69107  89.0066  19.1973 0019426  24.4022 335.8049 13.59173409  8282
QIANFAN-149             
1 69108U 26108E   26196.75617678 -.02007793  00000+0 -29244+1 0  9992
2 69108  89.0097  19.2090 0018422  18.0402 342.1403 13.58876078  8280
QIANFAN-150             
1 69109U 26108F   26196.77122652 -.02023604  00000+0 -27434+1 0  9996
2 69109  89.0094  19.1768 0019898  18.0300 342.1559 13.63371759  8299
QIANFAN-151             
1 69110U 26108G   26196.74137388 -.01844429  00000+0 -25590+1 0  9993
2 69110  89.0101  19.1901 0016998  22.1647 338.0241 13.62254647  8283
QIANFAN-152             
1 69111U 26108H   26196.78650857 -.01914253  00000+0 -27322+1 0  9997
2 69111  89.0099  19.1777 0016009  14.1363 346.0238 13.60659586  8307
QIANFAN-153             
1 69112U 26108J   26196.95444724  .00000026  00000+0  14612-4 0  9994
2 69112  89.0097  19.1629 0020526  26.5815 333.6395 13.71252163  8319
QIANFAN-154             
1 69113U 26108K   26196.76057711 -.01869556  00000+0 -28526+1 0  9999
2 69113  89.0095  19.1942 0020553  26.9800 333.2418 13.56324679  8298
QIANFAN-155             
1 69114U 26108L   26196.78071763 -.02037499  00000+0 -28090+1 0  9995
2 69114  89.0104  19.1799 0019100  31.3325 328.8966 13.62363225  8293
QIANFAN-156             
1 69115U 26108M   26196.78720893 -.01956683  00000+0 -26355+1 0  9997
2 69115  89.0116  19.1671 0021119  20.2216 339.9774 13.63628400  8318
QIANFAN-157             
1 69116U 26108N   26196.77767001 -.01904828  00000+0 -23003+1 0  9990
2 69116  89.0095  19.1214 0019500  33.9370 326.3035 13.70939135  8331
QIANFAN-158             
1 69117U 26108P   26196.79557198 -.02029356  00000+0 -26088+1 0  9998
2 69117  89.0103  19.1430 0023456  37.7163 322.5635 13.66638331  8321
QIANFAN-159             
1 69118U 26108Q   26196.92568692  .00000022  00000+0  12109-4 0  9993
2 69118  89.0094  19.1397 0020951  23.7664 336.4458 13.64261084  8334
QIANFAN-160             
1 69119U 26108R   26196.81068524 -.01829275  00000+0 -27070+1 0  9992
2 69119  89.0099  19.1647 0020484  24.8823 335.3316 13.58156666  8319
QIANFAN-161             
1 69120U 26108S   26196.92143953  .00000024  00000+0  11386-4 0  9993
2 69120  89.0109  19.1102 0019164  26.4275 333.7864 13.75476813  8353
QIANFAN-162             
1 69121U 26108T   26196.91860979  .00000021  00000+0  94403-5 0  9996
2 69121  89.0103  19.1255 0019953  24.7976 335.4140 13.68857520  8336
SMILE                   
1 69123U 26109A   26194.95939329  .00000936  00000+0  00000+0 0  9996
2 69123  70.0512 206.6048 8313707 286.9544   0.1879  0.47500629    65
STARLINK-37726          
1 69124U 26110A   26196.49708280  .00010087  00000+0  31433-3 0  9996
2 69124  97.2840  32.5879 0002061  90.8677 269.2802 15.33444704  9951
STARLINK-37722          
1 69125U 26110B   26196.55146010  .00010379  00000+0  32334-3 0  9996
2 69125  97.2854  32.5193 0001495  88.3673 271.7741 15.33446975  9956
STARLINK-37715          
1 69126U 26110C   26196.49437142  .00010258  00000+0  31983-3 0  9994
2 69126  97.2847  32.4450 0001581  94.8960 265.2463 15.33425041  9940
STARLINK-37706          
1 69127U 26110D   26196.55690524  .00000224  00000+0  92615-5 0  9990
2 69127  97.2867  32.5167 0001088  90.0292 270.1075 15.33427108  9958
STARLINK-37723          
1 69128U 26110E   26196.61942372  .00007694  00000+0  24050-3 0  9993
2 69128  97.2842  32.5821 0001835  92.9983 267.1469 15.33433662  9963
STARLINK-37720          
1 69129U 26110F   26196.54874122  .00010938  00000+0  34058-3 0  9997
2 69129  97.2847  32.5199 0001849 106.9216 253.2230 15.33448905  9954
STARLINK-37533          
1 69130U 26110G   26196.54601925  .00011457  00000+0  35659-3 0  9993
2 69130  97.2846  32.5288 0001748  93.8325 266.3118 15.33451850  9950
STARLINK-37530          
1 69131U 26110H   26196.54332542  .00013198  00000+0  41030-3 0  9994
2 69131  97.2846  32.5330 0002215 109.7133 250.4349 15.33453200  9954
STARLINK-37660          
1 69132U 26110J   26196.60583967  .00012508  00000+0  38889-3 0  9993
2 69132  97.2855  32.6001 0001930  92.8449 267.3014 15.33463525  9964
